CCSDS_OMM_VERS = 2.0
CREATION_DATE  = 
ORIGINATOR     = 

OBJECT_NAME    = SL-16 R/B
OBJECT_ID      = 1998-043G
CENTER_NAME    = EARTH
REF_FRAME      = TEME
TIME_SYSTEM    = UTC
MEAN_ELEMENT_THEORY = SGP/SGP4

EPOCH          = 2026-02-27T20:07:31.515744
MEAN_MOTION    = 14.26047176
ECCENTRICITY   = .00106626
INCLINATION    = 98.8237
RA_OF_ASC_NODE = 12.1333
ARG_OF_PERICENTER = 47.3255
MEAN_ANOMALY   = 312.8822

EPHEMERIS_TYPE = 0
CLASSIFICATION_TYPE = U
NORAD_CAT_ID   = 25400
ELEMENT_SET_NO = 999
REV_AT_EPOCH   = 43758
BSTAR          = .46148208E-4
MEAN_MOTION_DOT = .65E-6
MEAN_MOTION_DDOT = 0

CCSDS_OMM_VERS = 2.0
CREATION_DATE  = 
ORIGINATOR     = 

OBJECT_NAME    = SL-16 R/B
OBJECT_ID      = 1998-045B
CENTER_NAME    = EARTH
REF_FRAME      = TEME
TIME_SYSTEM    = UTC
MEAN_ELEMENT_THEORY = SGP/SGP4

EPOCH          = 2026-02-27T19:49:09.881184
MEAN_MOTION    = 14.16190560
ECCENTRICITY   = .0006194
INCLINATION    = 71.0109
RA_OF_ASC_NODE = 202.3156
ARG_OF_PERICENTER = 23.5550
MEAN_ANOMALY   = 336.5856

EPHEMERIS_TYPE = 0
CLASSIFICATION_TYPE = U
NORAD_CAT_ID   = 25407
ELEMENT_SET_NO = 999
REV_AT_EPOCH   = 42570
BSTAR          = -.8964421E-4
MEAN_MOTION_DOT = -.225E-5
MEAN_MOTION_DDOT = 0

CCSDS_OMM_VERS = 2.0
CREATION_DATE  = 
ORIGINATOR     = 

OBJECT_NAME    = ISS (ZARYA)
OBJECT_ID      = 1998-067A
CENTER_NAME    = EARTH
REF_FRAME      = TEME
TIME_SYSTEM    = UTC
MEAN_ELEMENT_THEORY = SGP/SGP4

EPOCH          = 2026-02-27T21:31:51.403872
MEAN_MOTION    = 15.48349372
ECCENTRICITY   = .00083217
INCLINATION    = 51.6325
RA_OF_ASC_NODE = 120.7666
ARG_OF_PERICENTER = 140.4027
MEAN_ANOMALY   = 219.7571

EPHEMERIS_TYPE = 0
CLASSIFICATION_TYPE = U
NORAD_CAT_ID   = 25544
ELEMENT_SET_NO = 999
REV_AT_EPOCH   = 55481
BSTAR          = .2272581E-3
MEAN_MOTION_DOT = .1182E-3
MEAN_MOTION_DDOT = 0

CCSDS_OMM_VERS = 2.0
CREATION_DATE  = 
ORIGINATOR     = 

OBJECT_NAME    = CZ-4B R/B
OBJECT_ID      = 1999-025C
CENTER_NAME    = EARTH
REF_FRAME      = TEME
TIME_SYSTEM    = UTC
MEAN_ELEMENT_THEORY = SGP/SGP4

EPOCH          = 2026-02-27T21:08:51.425664
MEAN_MOTION    = 14.18263116
ECCENTRICITY   = .00372916
INCLINATION    = 98.6648
RA_OF_ASC_NODE = 103.3942
ARG_OF_PERICENTER = 14.8953
MEAN_ANOMALY   = 158.2056

EPHEMERIS_TYPE = 0
CLASSIFICATION_TYPE = U
NORAD_CAT_ID   = 25732
ELEMENT_SET_NO = 999
REV_AT_EPOCH   = 38677
BSTAR          = .48186282E-4
MEAN_MOTION_DOT = .57E-6
MEAN_MOTION_DDOT = 0

CCSDS_OMM_VERS = 2.0
CREATION_DATE  = 
ORIGINATOR     = 

OBJECT_NAME    = OKEAN-O
OBJECT_ID      = 1999-039A
CENTER_NAME    = EARTH
REF_FRAME      = TEME
TIME_SYSTEM    = UTC
MEAN_ELEMENT_THEORY = SGP/SGP4

EPOCH          = 2026-02-27T22:02:35.598912
MEAN_MOTION    = 14.80317412
ECCENTRICITY   = .00015567
INCLINATION    = 97.9465
RA_OF_ASC_NODE = 118.9084
ARG_OF_PERICENTER = 73.3759
MEAN_ANOMALY   = 286.7624

EPHEMERIS_TYPE = 0
CLASSIFICATION_TYPE = U
NORAD_CAT_ID   = 25860
ELEMENT_SET_NO = 999
REV_AT_EPOCH   = 43294
BSTAR          = .10287637E-3
MEAN_MOTION_DOT = .732E-5
MEAN_MOTION_DDOT = 0

CCSDS_OMM_VERS = 2.0
CREATION_DATE  = 
ORIGINATOR     = 

OBJECT_NAME    = SL-16 R/B
OBJECT_ID      = 1999-039B
CENTER_NAME    = EARTH
REF_FRAME      = TEME
TIME_SYSTEM    = UTC
MEAN_ELEMENT_THEORY = SGP/SGP4

EPOCH          = 2026-02-27T10:26:09.629952
MEAN_MOTION    = 14.81714936
ECCENTRICITY   = .00134788
INCLINATION    = 97.9989
RA_OF_ASC_NODE = 117.5457
ARG_OF_PERICENTER = 292.8263
MEAN_ANOMALY   = 67.1526

EPHEMERIS_TYPE = 0
CLASSIFICATION_TYPE = U
NORAD_CAT_ID   = 25861
ELEMENT_SET_NO = 999
REV_AT_EPOCH   = 43534
BSTAR          = .82138945E-4
MEAN_MOTION_DOT = .594E-5
MEAN_MOTION_DDOT = 0

CCSDS_OMM_VERS = 2.0
CREATION_DATE  = 
ORIGINATOR     = 

OBJECT_NAME    = DELTA 2 R/B
OBJECT_ID      = 1999-041E
CENTER_NAME    = EARTH
REF_FRAME      = TEME
TIME_SYSTEM    = UTC
MEAN_ELEMENT_THEORY = SGP/SGP4

EPOCH          = 2026-02-27T22:55:54.989184
MEAN_MOTION    = 14.11799786
ECCENTRICITY   = .05022712
INCLINATION    = 51.7659
RA_OF_ASC_NODE = 340.1571
ARG_OF_PERICENTER = 319.6909
MEAN_ANOMALY   = 36.7779

EPHEMERIS_TYPE = 0
CLASSIFICATION_TYPE = U
NORAD_CAT_ID   = 25876
ELEMENT_SET_NO = 999
REV_AT_EPOCH   = 36165
BSTAR          = .31294863E-3
MEAN_MOTION_DOT = .1711E-4
MEAN_MOTION_DDOT = 0

CCSDS_OMM_VERS = 2.0
CREATION_DATE  = 
ORIGINATOR     = 

OBJECT_NAME    = HELIOS 1B
OBJECT_ID      = 1999-064A
CENTER_NAME    = EARTH
REF_FRAME      = TEME
TIME_SYSTEM    = UTC
MEAN_ELEMENT_THEORY = SGP/SGP4

EPOCH          = 2026-02-27T23:04:04.317312
MEAN_MOTION    = 14.87650386
ECCENTRICITY   = .0002473
INCLINATION    = 98.1707
RA_OF_ASC_NODE = 320.9181
ARG_OF_PERICENTER = 88.4217
MEAN_ANOMALY   = 271.7282

EPHEMERIS_TYPE = 0
CLASSIFICATION_TYPE = U
NORAD_CAT_ID   = 25977
ELEMENT_SET_NO = 999
REV_AT_EPOCH   = 68381
BSTAR          = .20575243E-3
MEAN_MOTION_DOT = .1814E-4
MEAN_MOTION_DDOT = 0

CCSDS_OMM_VERS = 2.0
CREATION_DATE  = 
ORIGINATOR     = 

OBJECT_NAME    = TERRA
OBJECT_ID      = 1999-068A
CENTER_NAME    = EARTH
REF_FRAME      = TEME
TIME_SYSTEM    = UTC
MEAN_ELEMENT_THEORY = SGP/SGP4

EPOCH          = 2026-02-27T22:37:51.513312
MEAN_MOTION    = 14.61002596
ECCENTRICITY   = .00020356
INCLINATION    = 97.9615
RA_OF_ASC_NODE = 112.7491
ARG_OF_PERICENTER = 176.0371
MEAN_ANOMALY   = 357.2005

EPHEMERIS_TYPE = 0
CLASSIFICATION_TYPE = U
NORAD_CAT_ID   = 25994
ELEMENT_SET_NO = 999
REV_AT_EPOCH   = 39365
BSTAR          = .10419513E-3
MEAN_MOTION_DOT = .467E-5
MEAN_MOTION_DDOT = 0

CCSDS_OMM_VERS = 2.0
CREATION_DATE  = 
ORIGINATOR     = 

OBJECT_NAME    = SL-16 R/B
OBJECT_ID      = 2000-006B
CENTER_NAME    = EARTH
REF_FRAME      = TEME
TIME_SYSTEM    = UTC
MEAN_ELEMENT_THEORY = SGP/SGP4

EPOCH          = 2026-02-27T21:49:25.851072
MEAN_MOTION    = 14.15822108
ECCENTRICITY   = .00174036
INCLINATION    = 71.0015
RA_OF_ASC_NODE = 118.4035
ARG_OF_PERICENTER = 203.5771
MEAN_ANOMALY   = 156.4557

EPHEMERIS_TYPE = 0
CLASSIFICATION_TYPE = U
NORAD_CAT_ID   = 26070
ELEMENT_SET_NO = 999
REV_AT_EPOCH   = 34717
BSTAR          = .17605369E-3
MEAN_MOTION_DOT = .299E-5
MEAN_MOTION_DDOT = 0

CCSDS_OMM_VERS = 2.0
CREATION_DATE  = 
ORIGINATOR     = 

OBJECT_NAME    = TITAN 4B R/B
OBJECT_ID      = 2000-047B
CENTER_NAME    = EARTH
REF_FRAME      = TEME
TIME_SYSTEM    = UTC
MEAN_ELEMENT_THEORY = SGP/SGP4

EPOCH          = 2026-02-27T21:21:36.352512
MEAN_MOTION    = 15.09453367
ECCENTRICITY   = .00377962
INCLINATION    = 67.9883
RA_OF_ASC_NODE = 68.0653
ARG_OF_PERICENTER = 47.1592
MEAN_ANOMALY   = 313.2722

EPHEMERIS_TYPE = 0
CLASSIFICATION_TYPE = U
NORAD_CAT_ID   = 26474
ELEMENT_SET_NO = 999
REV_AT_EPOCH   = 39143
BSTAR          = .25927286E-3
MEAN_MOTION_DOT = .4094E-4
MEAN_MOTION_DDOT = 0

CCSDS_OMM_VERS = 2.0
CREATION_DATE  = 
ORIGINATOR     = 

OBJECT_NAME    = ENVISAT
OBJECT_ID      = 2002-009A
CENTER_NAME    = EARTH
REF_FRAME      = TEME
TIME_SYSTEM    = UTC
MEAN_ELEMENT_THEORY = SGP/SGP4

EPOCH          = 2026-02-27T20:51:59.730048
MEAN_MOTION    = 14.39032627
ECCENTRICITY   = .00013681
INCLINATION    = 98.3709
RA_OF_ASC_NODE = 12.7016
ARG_OF_PERICENTER = 85.1746
MEAN_ANOMALY   = 293.5287

EPHEMERIS_TYPE = 0
CLASSIFICATION_TYPE = U
NORAD_CAT_ID   = 27386
ELEMENT_SET_NO = 999
REV_AT_EPOCH   = 25776
BSTAR          = .55240777E-4
MEAN_MOTION_DOT = .128E-5
MEAN_MOTION_DDOT = 0

