SL-16 R/B               
1 25400U 98043G   26058.83855921  .00000065  00000+0  46148-4 0  9994
2 25400  98.8237  12.1333 0010662  47.3255 312.8822 14.26047176437585
SL-16 R/B               
1 25407U 98045B   26058.82580881 -.00000225  00000+0 -89644-4 0  9990
2 25407  71.0109 202.3156 0006194  23.5550 336.5856 14.16190560425704
ISS (ZARYA)             
1 25544U 98067A   26058.89712273  .00011820  00000+0  22726-3 0  9993
2 25544  51.6325 120.7666 0008321 140.4027 219.7571 15.48349372554815
CZ-4B R/B               
1 25732U 99025C   26058.88115076  .00000057  00000+0  48186-4 0  9993
2 25732  98.6648 103.3942 0037291  14.8953 158.2056 14.18263116386777
OKEAN-O                 
1 25860U 99039A   26058.91846758  .00000732  00000+0  10288-3 0  9993
2 25860  97.9465 118.9084 0001556  73.3759 286.7624 14.80317412432943
SL-16 R/B               
1 25861U 99039B   26058.43483368  .00000594  00000+0  82139-4 0  9996
2 25861  97.9989 117.5457 0013478 292.8263  67.1526 14.81714936435340
DELTA 2 R/B             
1 25876U 99041E   26058.95549756  .00001711  00000+0  31295-3 0  9994
2 25876  51.7659 340.1571 0502271 319.6909  36.7779 14.11799786361651
HELIOS 1B               
1 25977U 99064A   26058.96116108  .00001814  00000+0  20575-3 0  9996
2 25977  98.1707 320.9181 0002473  88.4217 271.7282 14.87650386683817
TERRA                   
1 25994U 99068A   26058.94295733  .00000467  00000+0  10420-3 0  9990
2 25994  97.9615 112.7491 0002035 176.0371 357.2005 14.61002596393650
SL-16 R/B               
1 26070U 00006B   26058.90932698  .00000299  00000+0  17605-3 0  9999
2 26070  71.0015 118.4035 0017403 203.5771 156.4557 14.15822108347170
TITAN 4B R/B            
1 26474U 00047B   26058.89000408  .00004094  00000+0  25927-3 0  9998
2 26474  67.9883  68.0653 0037796  47.1592 313.2722 15.09453367391437
ENVISAT                 
1 27386U 02009A   26058.86944132  .00000128  00000+0  55241-4 0  9996
2 27386  98.3709  12.7016 0001368  85.1746 293.5287 14.39032627257760
